CTC2_L_00569125-01
1 10248U 25637BE  26075.70049769  .00000000  00000+0  00000-0 0  9999
2 10248  99.7000 297.6000 0000000   0.0000 235.2000 13.56072486    11
CTC2_L_00569125-02
1 10249U 22312LS  26075.70049769  .00000000  00000+0  00000-0 0  9997
2 10249  99.7000 297.6000 0000000   0.0000  55.2000 13.56072486    12
CTC2_L_00569126-01
1 10250U 24345QD  26075.70049769  .00000000  00000+0  00000-0 0  9997
2 10250  99.7000 300.0000 0000000   0.0000 240.0000 13.56072486    17
CTC2_L_00569126-02
1 10251U 23723TU  26075.70049769  .00000000  00000+0  00000-0 0  9997
2 10251  99.7000 300.0000 0000000   0.0000  60.0000 13.56072486    18
CTC2_L_00569127-01
1 10252U 24249CY  26075.70049769  .00000000  00000+0  00000-0 0  9992
2 10252  99.7000 302.4000 0000000   0.0000 244.8000 13.56072486    17
CTC2_L_00569127-02
1 10253U 24787OY  26075.70049769  .00000000  00000+0  00000-0 0  9990
2 10253  99.7000 302.4000 0000000   0.0000  64.8000 13.56072486    18
CTC2_L_00569128-01
1 10254U 23034QR  26075.70049769  .00000000  00000+0  00000-0 0  9995
2 10254  99.7000 304.8000 0000000   0.0000 249.6000 13.56072486    18
CTC2_L_00569128-02
1 10255U 25012KS  26075.70049769  .00000000  00000+0  00000-0 0  9994
2 10255  99.7000 304.8000 0000000   0.0000  69.6000 13.56072486    19
CTC2_L_00569129-01
1 10256U 25919AF  26075.70049769  .00000000  00000+0  00000-0 0  9991
2 10256  99.7000 307.2000 0000000   0.0000 254.4000 13.56072486    11
CTC2_L_00569129-02
1 10257U 23231XB  26075.70049769  .00000000  00000+0  00000-0 0  9997
2 10257  99.7000 307.2000 0000000   0.0000  74.4000 13.56072486    12
CTC2_L_00569130-01
1 10258U 24349TK  26075.70049769  .00000000  00000+0  00000-0 0  9999
2 10258  99.7000 309.6000 0000000   0.0000 259.2000 13.56072486    12
CTC2_L_00569130-02
1 10259U 23370XK  26075.70049769  .00000000  00000+0  00000-0 0  9993
2 10259  99.7000 309.6000 0000000   0.0000  79.2000 13.56072486    13
CTC2_L_00569131-01
1 10260U 26506GT  26075.70049769  .00000000  00000+0  00000-0 0  9999
2 10260  99.7000 312.0000 0000000   0.0000 264.0000 13.56072486    17
CTC2_L_00569131-02
1 10261U 24531JB  26075.70049769  .00000000  00000+0  00000-0 0  9996
2 10261  99.7000 312.0000 0000000   0.0000  84.0000 13.56072486    18
CTC2_L_00569132-01
1 10262U 26597YM  26075.70049769  .00000000  00000+0  00000-0 0  9991
2 10262  99.7000 314.4000 0000000   0.0000 268.8000 13.56072486    17
CTC2_L_00569132-02
1 10263U 23391TU  26075.70049769  .00000000  00000+0  00000-0 0  9991
2 10263  99.7000 314.4000 0000000   0.0000  88.8000 13.56072486    18
CTC2_L_00569133-01
1 10264U 22264BS  26075.70049769  .00000000  00000+0  00000-0 0  9990
2 10264  99.7000 316.8000 0000000   0.0000 273.6000 13.56072486    19
CTC2_L_00569133-02
1 10265U 24617DS  26075.70049769  .00000000  00000+0  00000-0 0  9995
2 10265  99.7000 316.8000 0000000   0.0000  93.6000 13.56072486    10
CTC2_L_00569134-01
1 10266U 23100IJ  26075.70049769  .00000000  00000+0  00000-0 0  9992
2 10266  99.7000 319.2000 0000000   0.0000 278.4000 13.56072486    11
CTC2_L_00569134-02
1 10267U 23130IR  26075.70049769  .00000000  00000+0  00000-0 0  9996
2 10267  99.7000 319.2000 0000000   0.0000  98.4000 13.56072486    12
CTC2_L_00569135-01
1 10268U 25197MG  26075.70049769  .00000000  00000+0  00000-0 0  9992
2 10268  99.7000 321.6000 0000000   0.0000 283.2000 13.56072486    14
CTC2_L_00569135-02
1 10269U 25705IG  26075.70049769  .00000000  00000+0  00000-0 0  9998
2 10269  99.7000 321.6000 0000000   0.0000 103.2000 13.56072486    16
CTC2_L_00569136-01
1 10270U 25260RK  26075.70049769  .00000000  00000+0  00000-0 0  9996
2 10270  99.7000 324.0000 0000000   0.0000 288.0000 13.56072486    17
CTC2_L_00569136-02
1 10271U 23227TV  26075.70049769  .00000000  00000+0  00000-0 0  9998
2 10271  99.7000 324.0000 0000000   0.0000 108.0000 13.56072486    19
CTC2_L_00569137-01
1 10272U 25626QI  26075.70049769  .00000000  00000+0  00000-0 0  9994
2 10272  99.7000 326.4000 0000000   0.0000 292.8000 13.56072486    18
CTC2_L_00569137-02
1 10273U 23530UT  26075.70049769  .00000000  00000+0  00000-0 0  9997
2 10273  99.7000 326.4000 0000000   0.0000 112.8000 13.56072486    10
CTC2_L_00569138-01
1 10274U 22920Y   26075.70049769  .00000000  00000+0  00000-0 0  9990
2 10274  99.7000 328.8000 0000000   0.0000 297.6000 13.56072486    19
CTC2_L_00569138-02
1 10275U 26741FD  26075.70049769  .00000000  00000+0  00000-0 0  9996
2 10275  99.7000 328.8000 0000000   0.0000 117.6000 13.56072486    11
CTC2_L_00569139-01
1 10276U 25578HP  26075.70049769  .00000000  00000+0  00000-0 0  9994
2 10276  99.7000 331.2000 0000000   0.0000 302.4000 13.56072486    14
CTC2_L_00569139-02
1 10277U 24370IR  26075.70049769  .00000000  00000+0  00000-0 0  9994
2 10277  99.7000 331.2000 0000000   0.0000 122.4000 13.56072486    15
CTC2_L_00569140-01
1 10278U 26761QG  26075.70049769  .00000000  00000+0  00000-0 0  9991
2 10278  99.7000 333.6000 0000000   0.0000 307.2000 13.56072486    15
CTC2_L_00569140-02
1 10279U 24700ZT  26075.70049769  .00000000  00000+0  00000-0 0  9993
2 10279  99.7000 333.6000 0000000   0.0000 127.2000 13.56072486    16
CTC2_L_00569141-01
1 10280U 26218FR  26075.70049769  .00000000  00000+0  00000-0 0  9991
2 10280  99.7000 336.0000 0000000   0.0000 312.0000 13.56072486    19
CTC2_L_00569141-02
1 10281U 26239LG  26075.70049769  .00000000  00000+0  00000-0 0  9995
2 10281  99.7000 336.0000 0000000   0.0000 132.0000 13.56072486    10
CTC2_L_00569142-01
1 10282U 25473KC  26075.70049769  .00000000  00000+0  00000-0 0  9995
2 10282  99.7000 338.4000 0000000   0.0000 316.8000 13.56072486    19
CTC2_L_00569142-02
1 10283U 22418UZ  26075.70049769  .00000000  00000+0  00000-0 0  9992
2 10283  99.7000 338.4000 0000000   0.0000 136.8000 13.56072486    10
CTC2_L_00569143-01
1 10284U 26377DM  26075.70049769  .00000000  00000+0  00000-0 0  9991
2 10284  99.7000 340.8000 0000000   0.0000 321.6000 13.56072486    12
CTC2_L_00569143-02
1 10285U 26855LO  26075.70049769  .00000000  00000+0  00000-0 0  9993
2 10285  99.7000 340.8000 0000000   0.0000 141.6000 13.56072486    13
CTC2_L_00569144-01
1 10286U 25035RC  26075.70049769  .00000000  00000+0  00000-0 0  9993
2 10286  99.7000 343.2000 0000000   0.0000 326.4000 13.56072486    14
CTC2_L_00569144-02
1 10287U 22340ZL  26075.70049769  .00000000  00000+0  00000-0 0  9990
2 10287  99.7000 343.2000 0000000   0.0000 146.4000 13.56072486    15
CTC2_L_00569145-01
1 10288U 22254BW  26075.70049769  .00000000  00000+0  00000-0 0  9995
2 10288  99.7000 345.6000 0000000   0.0000 331.2000 13.56072486    16
CTC2_L_00569145-02
1 10289U 25005XV  26075.70049769  .00000000  00000+0  00000-0 0  9993
2 10289  99.7000 345.6000 0000000   0.0000 151.2000 13.56072486    17
CTC2_L_00569146-01
1 10290U 25352UA  26075.70049769  .00000000  00000+0  00000-0 0  9990
2 10290  99.7000 348.0000 0000000   0.0000 336.0000 13.56072486    19
CTC2_L_00569146-02
1 10291U 25327GP  26075.70049769  .00000000  00000+0  00000-0 0  9993
2 10291  99.7000 348.0000 0000000   0.0000 156.0000 13.56072486    10
CTC2_L_00569147-01
1 10292U 22031QR  26075.70049769  .00000000  00000+0  00000-0 0  9993
2 10292  99.7000 350.4000 0000000   0.0000 340.8000 13.56072486    11
CTC2_L_00569147-02
1 10293U 25545LN  26075.70049769  .00000000  00000+0  00000-0 0  9997
2 10293  99.7000 350.4000 0000000   0.0000 160.8000 13.56072486    12
CTC2_L_00569148-01
1 10294U 26762IL  26075.70049769  .00000000  00000+0  00000-0 0  9990
2 10294  99.7000 352.8000 0000000   0.0000 345.6000 13.56072486    12
CTC2_L_00569148-02
1 10295U 24841LM  26075.70049769  .00000000  00000+0  00000-0 0  9997
2 10295  99.7000 352.8000 0000000   0.0000 165.6000 13.56072486    13
CTC2_L_00569149-01
1 10296U 22331TX  26075.70049769  .00000000  00000+0  00000-0 0  9990
2 10296  99.7000 355.2000 0000000   0.0000 350.4000 13.56072486    15
CTC2_L_00569149-02
1 10297U 24710LE  26075.70049769  .00000000  00000+0  00000-0 0  9994
2 10297  99.7000 355.2000 0000000   0.0000 170.4000 13.56072486    16
CTC2_L_00569150-01
1 10298U 22384FI  26075.70049769  .00000000  00000+0  00000-0 0  9990
2 10298  99.7000 357.6000 0000000   0.0000 355.2000 13.56072486    16
CTC2_L_00569150-02
1 10299U 25525PH  26075.70049769  .00000000  00000+0  00000-0 0  9991
2 10299  99.7000 357.6000 0000000   0.0000 175.2000 13.56072486    17
